1 40581U 00000A   18206.00000000  .00000000  00000-0  28836-1 0    17
2 40581  98.8586 215.9708 0027970 332.5254 227.2417 14.15598400000018
1 40582U 00000A   18206.00000000  .00000000  00000-0  57283-1 0    16
2 40582  98.7518 164.4185 0102073 338.7782 211.1559 13.98405754000010
1 34257U 00000A   18206.00000000  .00000000  00000-0  85468-3 0    16
2 34257  52.1015 221.8331 5062532 100.6449 136.2230  5.21578567000018
1 34259U 00000A   18206.00000000  .00000000  00000-0  12731-1 0    19
2 34259  50.8706 105.0348 4765647 109.3919  36.6420  5.07932221000016
1 34261U 00000A   18206.00000000  .00000000  00000-0  28879-1 0    12
2 34261  52.1191  35.5714 4521528 130.4494  41.2532  6.29623662000014
1 40583U 00000A   18206.00000000  .00000000  00000-0  25924-1 0    14
2 40583  98.7719 233.5584 0043861   2.8374 275.8676 14.28417930000010
1 34263U 00000A   18206.00000000  .00000000  00000-0  12765-1 0    11
2 34263  51.6301 200.5343 4798047  99.2728 255.3120  5.81145043000019
1 34176U 00000A   18206.00000000  .00000000  00000-0  33065-2 0    11
2 34176  65.0143  27.8672 0019937 280.5041  60.2406 14.33804238000018
1 34204U 00000A   18206.00000000  .00000000  00000-0  24689-1 0    14
2 34204  98.2126 259.5055 0003037  78.3479  43.5014 15.14519986000012
1 40585U 00000A   18206.00000000  .00000000  00000-0  22128+0 0    17
2 40585  97.8453 159.9911 0030448 102.4769  44.5237 14.48187293000016
1 34207U 00000A   18206.00000000  .00000000  00000-0  24202-1 0    18
2 34207  98.2997 243.3188 0013400 232.1922  39.4765 14.81194646000019
1 34208U 00000A   18206.00000000  .00000000  00000-0  24080-1 0    13
2 34208  98.2785 237.7673 0008059 140.8297  60.2422 14.88928169000019
1 34209U 00000A   18206.00000000  .00000000  00000-0  26098-1 0    15
2 34209  98.3232 205.6290 0004188 248.6141 205.8558 14.70927166000015
1 34211U 00000A   18206.00000000  .00000000  00000-0  78161-2 0    17
2 34211  98.4472 204.8728 0075067 308.4210 312.7869 14.59971802000014
1 42712U 00000A   18206.00000000  .00000000  00000-0  83663-3 0    16
2 42712  51.6345 173.5501 0002356   6.0879  15.7012 15.65836879000015
1 34213U 00000A   18206.00000000  .00000000  00000-0  21662-1 0    12
2 34213  98.2867 221.6870 0010987 130.1924 167.9276 14.76810537000017
1 34214U 00000A   18206.00000000  .00000000  00000-0  23654-1 0    16
2 34214  98.2136 275.2452 0003021  91.0375 357.0099 15.10989675000018
1 34215U 00000A   18206.00000000  .00000000  00000-0  20722-1 0    10
2 34215  98.3703 183.2995 0007029   8.1610  77.7544 14.60229186000012
1 41528U 00000A   18206.00000000  .00000000  00000-0  43555-1 0    14
2 41528  98.7986 272.7342 0023199 308.4606  33.3254 14.15568220000012
1 34221U 00000A   18206.00000000  .00000000  00000-0  58862-3 0    15
2 34221  98.5436 172.4553 0074902 338.5264 249.0160 15.01155781000016
1 34223U 00000A   18206.00000000  .00000000  00000-0  42051-2 0    19
2 34223  99.1792 188.9387 0133895  43.1279 126.1166 14.01903326000015
1 41529U 00000A   18206.00000000  .00000000  00000-0  20224-1 0    13
2 41529  98.8868 267.5410 0045053 111.6847 327.3507 14.03537433000011
1 34271U 00000A   18206.00000000  .00000000  00000-0  15799-1 0    10
2 34271  74.0317 193.6072 0040207 195.4687  68.0344 14.38889136000019
1 40611U 00000A   18206.00000000  .00000000  00000-0  26864-1 0    10
2 40611  98.7821 202.2427 0034283 165.2455 282.1450 14.16080021000012
1 34274U 00000A   18206.00000000  .00000000  00000-0  91527-2 0    17
2 34274  74.0139 102.6830 0032478 178.5249 240.2878 14.45467171000018
1 40610U 00000A   18206.00000000  .00000000  00000-0  26162-1 0    10
2 40610  98.7746 208.5989 0032254 125.1226 147.7512 14.18978507000018
1 34276U 00000A   18206.00000000  .00000000  00000-0  65267-2 0    11
2 34276  74.0285  98.1785 0028904 183.7934 137.4652 14.45051396000013
1 34277U 00000A   18206.00000000  .00000000  00000-0  17418-1 0    16
2 34277  73.6935  82.9619 0032537 184.9249  29.3480 14.93103191000019
1 40609U 00000A   18206.00000000  .00000000  00000-0  27147-1 0    12
2 40609  98.7784 210.1716 0007143  60.5287 252.7279 14.19235397000014
1 40608U 00000A   18206.00000000  .00000000  00000-0 -85547-4 0    13
2 40608  98.7535 216.9881 0033109  21.4429  20.6981 14.22281369000015
1 43441U 00000A   18206.00000000  .00000000  00000-0  94886-3 0    15
2 43441  97.4081 287.0860 0011429  20.8714  10.6852 15.17872067000014
1 40606U 00000A   18206.00000000  .00000000  00000-0  49586-1 0    10
2 40606  98.7639 214.4119 0010086  49.0134 248.5992 14.23051285000019
1 40605U 00000A   18206.00000000  .00000000  00000-0  25611-1 0    12
2 40605  98.7785 220.9178 0038038  77.7088 128.7964 14.23421741000016
1 40604U 00000A   18206.00000000  .00000000  00000-0  24790-1 0    18
2 40604  98.6837 275.9684 0134254 165.1030 336.3371 14.56628947000012
1 40603U 00000A   18206.00000000  .00000000  00000-0  59720-1 0    18
2 40603  98.6888 296.2381 0087647  92.2597  39.3188 14.80597552000018
1 40602U 00000A   18206.00000000  .00000000  00000-0  59927-1 0    16
2 40602  98.7605 238.5863 0040494 351.1912 254.5082 14.34358143000010
1 40601U 00000A   18206.00000000  .00000000  00000-0  29776-1 0    14
2 40601  98.7977 215.9667 0016405 351.2774  89.0173 14.20024605000014
1 40600U 00000A   18206.00000000  .00000000  00000-0  39360-1 0    13
2 40600  98.9098 207.3302 0049885 330.1926 124.5017 14.09078915000015
1 40686U 00000A   18206.00000000  .00000000  00000-0  48077-1 0    12
2 40686  99.2428 163.2763 0013049   6.4854   6.5913 14.59260830000015
1 41527U 00000A   18206.00000000  .00000000  00000-0  30081-1 0    13
2 41527  98.9911 308.9552 0051119 208.3342 347.7593 14.24610147000018
1 40594U 00000A   18206.00000000  .00000000  00000-0  67574-3 0    15
2 40594  97.3461 295.3290 0002802 268.7514  51.7397 15.35481219000011
1 34298U 00000A   18206.00000000  .00000000  00000-0  22799-1 0    17
2 34298  74.0551  99.8635 0038647 103.4007  93.8540 14.55794138000010
1 34302U 00000A   18206.00000000  .00000000  00000-0  90930-2 0    16
2 34302  74.1878 317.9741 0088289 212.0418 328.9233 14.29031485000012
1 40675U 00000A   18206.00000000  .00000000  00000-0  27815-1 0    17
2 40675  98.7798 209.7682 0007291  74.6821 241.7929 14.19169698000012
1 40683U 00000A   18206.00000000  .00000000  00000-0  67605-2 0    18
2 40683  96.9287   7.9465 0076487 305.8959 235.6280 15.28502269000013
1 34920U 00000A   18206.00000000  .00000000  00000-0  17196-1 0    14
2 34920  74.0348 128.1003 0018106 145.4734 241.3539 14.47977819000010
1 34307U 00000A   18206.00000000  .00000000  00000-0  20213-1 0    17
2 34307  74.0602 298.8943 0407470 352.8755  11.8001 13.49891706000018
1 41525U 00000A   18206.00000000  .00000000  00000-0  23107-1 0    12
2 41525  98.8415 277.2855 0015926 154.9524  40.4176 14.13032735000015
1 41523U 00000A   18206.00000000  .00000000  00000-0  21990-1 0    18
2 41523  98.8909 280.0505 0010954  26.8174  66.9815 14.11308948000012
1 40937U 00000A   18206.00000000  .00000000  00000-0  81858-3 0    17
2 40937   5.9544 191.9780 0030103 353.9129 208.0954 14.80701949000018
1 41522U 00000A   18206.00000000  .00000000  00000-0  38652-1 0    10
2 41522  98.8847 288.4720 0031540 169.7585 202.0897 14.18998358000010
1 34316U 00000A   18206.00000000  .00000000  00000-0  11594-1 0    19
2 34316  74.0798  77.6437 0020088 171.6687  61.4997 14.52638110000010
1 34317U 00000A   18206.00000000  .00000000  00000-0  12007-1 0    10
2 34317  73.9270 139.1357 0343084 279.4122 317.3031 13.61843862000017
1 42106U 00000A   18206.00000000  .00000000  00000-0  18028-1 0    14
2 42106  83.0795 110.0781 0029455 315.1033 316.2525 14.49639573000012
1 41521U 00000A   18206.00000000  .00000000  00000-0  49020-1 0    10
2 41521  98.8141 277.9952 0060815 292.4151  41.8687 14.18311076000018
1 41520U 00000A   18206.00000000  .00000000  00000-0  42933-1 0    15
2 41520  98.9331 278.7958 0056476   1.0404  45.2887 14.09929163000019
1 41519U 00000A   18206.00000000  .00000000  00000-0  45632-1 0    12
2 41519  98.8690 279.3205 0021268 141.7180 324.0788 14.15031117000018
1 41518U 00000A   18206.00000000  .00000000  00000-0  38124-1 0    19
2 41518  98.8602 284.8133 0028762 266.9217 101.2065 14.18472720000013
1 41517U 00000A   18206.00000000  .00000000  00000-0  42113-1 0    11
2 41517  98.8193 294.1436 0059836 164.1209 270.1450 14.27270504000013
1 34325U 00000A   18206.00000000  .00000000  00000-0  22696-1 0    14
2 34325  73.8735 203.5617 0220328   8.3711   0.1677 13.93465837000014
1 41516U 00000A   18206.00000000  .00000000  00000-0  22291-1 0    15
2 41516  98.8295 280.2423 0017418 184.1948   2.8422 14.15732986000012
1 41515U 00000A   18206.00000000  .00000000  00000-0  51718-1 0    10
2 41515  99.0251 300.3763 0012707 256.9842   4.3475 14.18204856000012
1 41514U 00000A   18206.00000000  .00000000  00000-0  28520-1 0    14
2 41514  98.8800 292.0918 0045357 161.6199 343.4953 14.20762083000013
1 41512U 00000A   18206.00000000  .00000000  00000-0  23128-1 0    11
2 41512  98.8866 296.0668 0045698 181.9564 289.3697 14.22532044000015
1 41511U 00000A   18206.00000000  .00000000  00000-0  21873-1 0    15
2 41511  98.8818 275.0691 0028630  33.8984 166.4681 14.08741067000011
1 41510U 00000A   18206.00000000  .00000000  00000-0  20599-1 0    18
2 41510  98.8930 281.5058 0027639 338.0285 204.9916 14.12246191000018
1 41509U 00000A   18206.00000000  .00000000  00000-0  22320-1 0    10
2 41509  98.8835 282.4044 0018965 321.6665 322.6745 14.13471631000015
1 36540U 00000A   18206.00000000  .00000000  00000-0  10733-1 0    14
2 36540  74.0341 163.9609 0023231 179.3437 342.3920 14.40234296000017
1 41507U 00000A   18206.00000000  .00000000  00000-0  29523-1 0    10
2 41507  98.8960 289.7269 0021294 201.3620 255.3953 14.18277791000014
1 34337U 00000A   18206.00000000  .00000000  00000-0  48306-2 0    14
2 34337  73.9797  32.4078 0100220 115.7515 234.8610 14.98801124000011
1 41506U 00000A   18206.00000000  .00000000  00000-0  36377-1 0    14
2 41506  98.8037 291.7941 0061249 156.2107 194.8070 14.26720299000012
